[{"OBJECT_NAME":"ONEWEB-0503","OBJECT_ID":"2022-138J","EPOCH":"2026-01-30T05:31:25.109472","MEAN_MOTION":13.1972711,"ECCENTRICITY":0.00019059,"INCLINATION":87.9253,"RA_OF_ASC_NODE":332.4078,"ARG_OF_PERICENTER":73.1216,"MEAN_ANOMALY":287.0126,"EPHEMERIS_TYPE":0,"CLASSIFICATION_TYPE":"U","NORAD_CAT_ID":54121,"ELEMENT_SET_NO":999,"REV_AT_EPOCH":15862,"BSTAR":1.6762766e-5,"MEAN_MOTION_DOT":2.0e-7,"MEAN_MOTION_DDOT":0},{"OBJECT_NAME":"ONEWEB-0504","OBJECT_ID":"2022-138K","EPOCH":"2026-01-30T05:13:14.110752","MEAN_MOTION":13.19726248,"ECCENTRICITY":0.00016136,"INCLINATION":87.9245,"RA_OF_ASC_NODE":332.4236,"ARG_OF_PERICENTER":70.7581,"MEAN_ANOMALY":289.3726,"EPHEMERIS_TYPE":0,"CLASSIFICATION_TYPE":"U","NORAD_CAT_ID":54122,"ELEMENT_SET_NO":999,"REV_AT_EPOCH":15863,"BSTAR":2.4160587e-5,"MEAN_MOTION_DOT":2.3e-7,"MEAN_MOTION_DDOT":0},{"OBJECT_NAME":"ONEWEB-0505","OBJECT_ID":"2022-138L","EPOCH":"2026-01-30T05:08:40.540704","MEAN_MOTION":13.19726837,"ECCENTRICITY":0.00013143,"INCLINATION":87.9252,"RA_OF_ASC_NODE":332.4177,"ARG_OF_PERICENTER":67.8122,"MEAN_ANOMALY":292.315,"EPHEMERIS_TYPE":0,"CLASSIFICATION_TYPE":"U","NORAD_CAT_ID":54123,"ELEMENT_SET_NO":999,"REV_AT_EPOCH":15861,"BSTAR":3.22339e-6,"MEAN_MOTION_DOT":1.4e-7,"MEAN_MOTION_DDOT":0},{"OBJECT_NAME":"ONEWEB-0506","OBJECT_ID":"2022-138M","EPOCH":"2026-01-30T06:21:27.112032","MEAN_MOTION":13.19727597,"ECCENTRICITY":0.00016006,"INCLINATION":87.9256,"RA_OF_ASC_NODE":332.4046,"ARG_OF_PERICENTER":76.4095,"MEAN_ANOMALY":283.7216,"EPHEMERIS_TYPE":0,"CLASSIFICATION_TYPE":"U","NORAD_CAT_ID":54124,"ELEMENT_SET_NO":999,"REV_AT_EPOCH":15861,"BSTAR":9.2991195e-5,"MEAN_MOTION_DOT":5.0e-7,"MEAN_MOTION_DDOT":0},{"OBJECT_NAME":"ONEWEB-0507","OBJECT_ID":"2022-138N","EPOCH":"2026-01-30T06:50:59.964000","MEAN_MOTION":13.19728764,"ECCENTRICITY":0.0001498,"INCLINATION":87.9235,"RA_OF_ASC_NODE":332.4281,"ARG_OF_PERICENTER":78.6993,"MEAN_ANOMALY":281.4308,"EPHEMERIS_TYPE":0,"CLASSIFICATION_TYPE":"U","NORAD_CAT_ID":54125,"ELEMENT_SET_NO":999,"REV_AT_EPOCH":15866,"BSTAR":5.3677465e-5,"MEAN_MOTION_DOT":3.4e-7,"MEAN_MOTION_DDOT":0},{"OBJECT_NAME":"ONEWEB-0508","OBJECT_ID":"2022-138P","EPOCH":"2026-01-30T06:46:27.809184","MEAN_MOTION":13.19728135,"ECCENTRICITY":0.00013771,"INCLINATION":87.924,"RA_OF_ASC_NODE":332.4257,"ARG_OF_PERICENTER":80.9306,"MEAN_ANOMALY":279.1982,"EPHEMERIS_TYPE":0,"CLASSIFICATION_TYPE":"U","NORAD_CAT_ID":54126,"ELEMENT_SET_NO":999,"REV_AT_EPOCH":15864,"BSTAR":0.0001607622,"MEAN_MOTION_DOT":7.7e-7,"MEAN_MOTION_DDOT":0},{"OBJECT_NAME":"ONEWEB-0509","OBJECT_ID":"2022-138Q","EPOCH":"2026-01-30T06:10:03.785664","MEAN_MOTION":13.19724402,"ECCENTRICITY":0.0001634,"INCLINATION":87.9258,"RA_OF_ASC_NODE":332.4061,"ARG_OF_PERICENTER":76.9182,"MEAN_ANOMALY":283.2133,"EPHEMERIS_TYPE":0,"CLASSIFICATION_TYPE":"U","NORAD_CAT_ID":54127,"ELEMENT_SET_NO":999,"REV_AT_EPOCH":15861,"BSTAR":9.6082414e-5,"MEAN_MOTION_DOT":5.1e-7,"MEAN_MOTION_DDOT":0},{"OBJECT_NAME":"ONEWEB-0510","OBJECT_ID":"2022-138R","EPOCH":"2026-01-30T06:05:56.728320","MEAN_MOTION":13.20771955,"ECCENTRICITY":0.00021153,"INCLINATION":87.9223,"RA_OF_ASC_NODE":301.9601,"ARG_OF_PERICENTER":82.4471,"MEAN_ANOMALY":277.6903,"EPHEMERIS_TYPE":0,"CLASSIFICATION_TYPE":"U","NORAD_CAT_ID":54128,"ELEMENT_SET_NO":999,"REV_AT_EPOCH":16107,"BSTAR":0.00021551552,"MEAN_MOTION_DOT":1.01e-6,"MEAN_MOTION_DDOT":0},{"OBJECT_NAME":"ONEWEB-0511","OBJECT_ID":"2022-138S","EPOCH":"2026-01-30T06:05:31.624800","MEAN_MOTION":13.19727651,"ECCENTRICITY":0.00018892,"INCLINATION":87.926,"RA_OF_ASC_NODE":332.4106,"ARG_OF_PERICENTER":70.9739,"MEAN_ANOMALY":289.1598,"EPHEMERIS_TYPE":0,"CLASSIFICATION_TYPE":"U","NORAD_CAT_ID":54129,"ELEMENT_SET_NO":999,"REV_AT_EPOCH":15864,"BSTAR":0.00017475102,"MEAN_MOTION_DOT":8.3e-7,"MEAN_MOTION_DDOT":0},{"OBJECT_NAME":"ONEWEB-0512","OBJECT_ID":"2022-138T","EPOCH":"2026-01-30T05:54:09.992736","MEAN_MOTION":13.19726512,"ECCENTRICITY":0.00015292,"INCLINATION":87.9246,"RA_OF_ASC_NODE":332.4304,"ARG_OF_PERICENTER":68.7771,"MEAN_ANOMALY":291.3525,"EPHEMERIS_TYPE":0,"CLASSIFICATION_TYPE":"U","NORAD_CAT_ID":54130,"ELEMENT_SET_NO":999,"REV_AT_EPOCH":15861,"BSTAR":0.00012043732,"MEAN_MOTION_DOT":6.1e-7,"MEAN_MOTION_DDOT":0},{"OBJECT_NAME":"ONEWEB-0513","OBJECT_ID":"2022-138U","EPOCH":"2026-01-30T05:34:08.659488","MEAN_MOTION":13.2025933,"ECCENTRICITY":0.00015493,"INCLINATION":87.9257,"RA_OF_ASC_NODE":332.3911,"ARG_OF_PERICENTER":48.5943,"MEAN_ANOMALY":311.5323,"EPHEMERIS_TYPE":0,"CLASSIFICATION_TYPE":"U","NORAD_CAT_ID":54131,"ELEMENT_SET_NO":999,"REV_AT_EPOCH":15851,"BSTAR":1.204177e-6,"MEAN_MOTION_DOT":1.3e-7,"MEAN_MOTION_DDOT":0},{"OBJECT_NAME":"ONEWEB-0514","OBJECT_ID":"2022-138V","EPOCH":"2026-01-30T06:16:53.489280","MEAN_MOTION":13.19727854,"ECCENTRICITY":0.00018561,"INCLINATION":87.9246,"RA_OF_ASC_NODE":332.4153,"ARG_OF_PERICENTER":79.6565,"MEAN_ANOMALY":280.4776,"EPHEMERIS_TYPE":0,"CLASSIFICATION_TYPE":"U","NORAD_CAT_ID":54132,"ELEMENT_SET_NO":999,"REV_AT_EPOCH":15863,"BSTAR":2.1961074e-5,"MEAN_MOTION_DOT":2.2e-7,"MEAN_MOTION_DDOT":0},{"OBJECT_NAME":"ONEWEB-0515","OBJECT_ID":"2022-138W","EPOCH":"2026-01-30T05:47:44.591712","MEAN_MOTION":13.2077189,"ECCENTRICITY":0.00020688,"INCLINATION":87.9223,"RA_OF_ASC_NODE":301.951,"ARG_OF_PERICENTER":100.9144,"MEAN_ANOMALY":259.2223,"EPHEMERIS_TYPE":0,"CLASSIFICATION_TYPE":"U","NORAD_CAT_ID":54133,"ELEMENT_SET_NO":999,"REV_AT_EPOCH":16109,"BSTAR":-0.00036781355,"MEAN_MOTION_DOT":-1.37e-6,"MEAN_MOTION_DDOT":0},{"OBJECT_NAME":"ONEWEB-0516","OBJECT_ID":"2022-138X","EPOCH":"2026-01-30T05:40:31.065888","MEAN_MOTION":13.197275,"ECCENTRICITY":0.00016262,"INCLINATION":87.9238,"RA_OF_ASC_NODE":332.4345,"ARG_OF_PERICENTER":81.3276,"MEAN_ANOMALY":278.8041,"EPHEMERIS_TYPE":0,"CLASSIFICATION_TYPE":"U","NORAD_CAT_ID":54134,"ELEMENT_SET_NO":999,"REV_AT_EPOCH":15863,"BSTAR":0.00016837619,"MEAN_MOTION_DOT":8.0e-7,"MEAN_MOTION_DDOT":0},{"OBJECT_NAME":"ONEWEB-0517","OBJECT_ID":"2022-138Y","EPOCH":"2026-01-30T05:10:55.722144","MEAN_MOTION":13.19727268,"ECCENTRICITY":0.00019171,"INCLINATION":87.9245,"RA_OF_ASC_NODE":332.4252,"ARG_OF_PERICENTER":72.4839,"MEAN_ANOMALY":287.6503,"EPHEMERIS_TYPE":0,"CLASSIFICATION_TYPE":"U","NORAD_CAT_ID":54135,"ELEMENT_SET_NO":999,"REV_AT_EPOCH":15863,"BSTAR":-0.00023367657,"MEAN_MOTION_DOT":-8.1e-7,"MEAN_MOTION_DDOT":0},{"OBJECT_NAME":"ONEWEB-0518","OBJECT_ID":"2022-138Z","EPOCH":"2026-01-30T05:38:13.354656","MEAN_MOTION":13.19724401,"ECCENTRICITY":0.00015759,"INCLINATION":87.924,"RA_OF_ASC_NODE":332.4367,"ARG_OF_PERICENTER":77.2098,"MEAN_ANOMALY":282.921,"EPHEMERIS_TYPE":0,"CLASSIFICATION_TYPE":"U","NORAD_CAT_ID":54136,"ELEMENT_SET_NO":999,"REV_AT_EPOCH":15863,"BSTAR":0.00028922877,"MEAN_MOTION_DOT":1.29e-6,"MEAN_MOTION_DDOT":0},{"OBJECT_NAME":"ONEWEB-0519","OBJECT_ID":"2022-138AA","EPOCH":"2026-01-30T06:14:38.573088","MEAN_MOTION":13.19726393,"ECCENTRICITY":0.00018504,"INCLINATION":87.9251,"RA_OF_ASC_NODE":332.407,"ARG_OF_PERICENTER":73.547,"MEAN_ANOMALY":286.5866,"EPHEMERIS_TYPE":0,"CLASSIFICATION_TYPE":"U","NORAD_CAT_ID":54137,"ELEMENT_SET_NO":999,"REV_AT_EPOCH":15864,"BSTAR":2.5883714e-5,"MEAN_MOTION_DOT":2.3e-7,"MEAN_MOTION_DDOT":0}]
