ONEWEB-0503             
1 54121U 22138J   26030.23015173  .00000020  00000+0  16763-4 0  9990
2 54121  87.9253 332.4078 0001905  73.1216 287.0126 13.19727110158621
ONEWEB-0504             
1 54122U 22138K   26030.21752443  .00000023  00000+0  24161-4 0  9991
2 54122  87.9245 332.4236 0001613  70.7581 289.3726 13.19726248158636
ONEWEB-0505             
1 54123U 22138L   26030.21435811  .00000014  00000+0  32234-5 0  9990
2 54123  87.9252 332.4177 0001314  67.8122 292.3150 13.19726837158612
ONEWEB-0506             
1 54124U 22138M   26030.26489713  .00000050  00000+0  92991-4 0  9991
2 54124  87.9256 332.4046 0001600  76.4095 283.7216 13.19727597158616
ONEWEB-0507             
1 54125U 22138N   26030.28541625  .00000034  00000+0  53677-4 0  9995
2 54125  87.9235 332.4281 0001498  78.6993 281.4308 13.19728764158660
ONEWEB-0508             
1 54126U 22138P   26030.28226631  .00000077  00000+0  16076-3 0  9991
2 54126  87.9240 332.4257 0001377  80.9306 279.1982 13.19728135158642
ONEWEB-0509             
1 54127U 22138Q   26030.25698826  .00000051  00000+0  96082-4 0  9996
2 54127  87.9258 332.4061 0001634  76.9182 283.2133 13.19724402158612
ONEWEB-0510             
1 54128U 22138R   26030.25412880  .00000101  00000+0  21552-3 0  9996
2 54128  87.9223 301.9601 0002115  82.4471 277.6903 13.20771955161077
ONEWEB-0511             
1 54129U 22138S   26030.25383825  .00000083  00000+0  17475-3 0  9991
2 54129  87.9260 332.4106 0001889  70.9739 289.1598 13.19727651158643
ONEWEB-0512             
1 54130U 22138T   26030.24594899  .00000061  00000+0  12044-3 0  9990
2 54130  87.9246 332.4304 0001529  68.7771 291.3525 13.19726512158618
ONEWEB-0513             
1 54131U 22138U   26030.23204467  .00000013  00000+0  12042-5 0  9996
2 54131  87.9257 332.3911 0001549  48.5943 311.5323 13.20259330158514
ONEWEB-0514             
1 54132U 22138V   26030.26173020  .00000022  00000+0  21961-4 0  9999
2 54132  87.9246 332.4153 0001856  79.6565 280.4776 13.19727854158636
ONEWEB-0515             
1 54133U 22138W   26030.24148833 -.00000137  00000+0 -36781-3 0  9996
2 54133  87.9223 301.9510 0002068 100.9144 259.2223 13.20771890161093
ONEWEB-0516             
1 54134U 22138X   26030.23647067  .00000080  00000+0  16838-3 0  9995
2 54134  87.9238 332.4345 0001626  81.3276 278.8041 13.19727500158630
ONEWEB-0517             
1 54135U 22138Y   26030.21592271 -.00000081  00000+0 -23368-3 0  9999
2 54135  87.9245 332.4252 0001917  72.4839 287.6503 13.19727268158637
ONEWEB-0518             
1 54136U 22138Z   26030.23487679  .00000129  00000+0  28923-3 0  9990
2 54136  87.9240 332.4367 0001575  77.2098 282.9210 13.19724401158639
ONEWEB-0519             
1 54137U 22138AA  26030.26016867  .00000023  00000+0  25884-4 0  9998
2 54137  87.9251 332.4070 0001850  73.5470 286.5866 13.19726393158642
